[{"OBJECT_NAME":"STARLINK-33992","OBJECT_ID":"2025-102E","EPOCH":"2026-03-09T12:46:45.300000","MEAN_MOTION":14.98329614,"ECCENTRICITY":0.00036172,"INCLINATION":70.0008,"RA_OF_ASC_NODE":115.0553,"ARG_OF_PERICENTER":268.2741,"MEAN_ANOMALY":91.8004,"EPHEMERIS_TYPE":0,"CLASSIFICATION_TYPE":"U","NORAD_CAT_ID":64026,"ELEMENT_SET_NO":999,"REV_AT_EPOCH":4601,"BSTAR":0.0003249454,"MEAN_MOTION_DOT":3.786e-5,"MEAN_MOTION_DDOT":0},{"OBJECT_NAME":"SAUDISAT 1B (SO-42)","OBJECT_ID":"2000-057E","EPOCH":"2026-03-09T23:18:23.116032","MEAN_MOTION":14.90902697,"ECCENTRICITY":0.00345198,"INCLINATION":64.5499,"RA_OF_ASC_NODE":306.1635,"ARG_OF_PERICENTER":324.2198,"MEAN_ANOMALY":35.6599,"EPHEMERIS_TYPE":0,"CLASSIFICATION_TYPE":"U","NORAD_CAT_ID":26549,"ELEMENT_SET_NO":999,"REV_AT_EPOCH":37681,"BSTAR":0.00018442418,"MEAN_MOTION_DOT":1.685e-5,"MEAN_MOTION_DDOT":0}]
